{
  "type": "FeatureCollection",
  "features": [
    {
      "type": "Feature",
      "properties": {
        "norad_id": 33724,
        "name": "FENGYUN 1C DEB",
        "group": "fengyun-1c-debris",
        "lat": -14.420940981115828,
        "lon": 12.434668324230065,
        "alt_km": 849.5802818297816,
        "timestamp": "2025-12-26T06:43:29.798834+00:00",
        "meta_object_name": "FENGYUN 1C DEB",
        "meta_object_id": "1999-025DHM",
        "meta_epoch": "2025-12-22T06:40:37.155648",
        "meta_mean_motion": 14.19663244,
        "meta_eccentricity": 0.00279005,
        "meta_inclination": 98.6032,
        "meta_ra_of_asc_node": 6.3154,
        "meta_arg_of_pericenter": 154.2406,
        "meta_mean_anomaly": 269.5567,
        "meta_ephemeris_type": 0,
        "meta_classification_type": "U",
        "meta_norad_cat_id": 33724,
        "meta_element_set_no": 999,
        "meta_rev_at_epoch": 94097,
        "meta_bstar": 0.00040045162,
        "meta_mean_motion_dot": 8.07e-06,
        "meta_mean_motion_ddot": 0,
        "tle_line1": "1 33724U 99025DHM 25356.27820782  .00000807  00000+0  40045-3 0  9991",
        "tle_line2": "2 33724  98.6032   6.3154 0027900 154.2406 269.5567 14.19663244940977"
      },
      "geometry": {
        "type": "Point",
        "coordinates": [
          12.434668324230065,
          -14.420940981115828
        ]
      }
    },
    {
      "type": "Feature",
      "properties": {
        "norad_id": 33726,
        "name": "FENGYUN 1C DEB",
        "group": "fengyun-1c-debris",
        "lat": 75.2709418800692,
        "lon": 88.72329951941003,
        "alt_km": 824.3960097988247,
        "timestamp": "2025-12-26T06:43:29.798845+00:00",
        "meta_object_name": "FENGYUN 1C DEB",
        "meta_object_id": "1999-025DHP",
        "meta_epoch": "2025-12-22T07:25:21.024768",
        "meta_mean_motion": 14.14317357,
        "meta_eccentricity": 0.01922665,
        "meta_inclination": 98.6392,
        "meta_ra_of_asc_node": 120.2126,
        "meta_arg_of_pericenter": 3.7011,
        "meta_mean_anomaly": 25.3001,
        "meta_ephemeris_type": 0,
        "meta_classification_type": "U",
        "meta_norad_cat_id": 33726,
        "meta_element_set_no": 999,
        "meta_rev_at_epoch": 92067,
        "meta_bstar": 0.00027067796,
        "meta_mean_motion_dot": 5.74e-06,
        "meta_mean_motion_ddot": 0,
        "tle_line1": "1 33726U 99025DHP 25356.30927112  .00000574  00000+0  27068-3 0  9993",
        "tle_line2": "2 33726  98.6392 120.2126 0192266   3.7011  25.3001 14.14317357920673"
      },
      "geometry": {
        "type": "Point",
        "coordinates": [
          88.72329951941003,
          75.2709418800692
        ]
      }
    },
    {
      "type": "Feature",
      "properties": {
        "norad_id": 33728,
        "name": "FENGYUN 1C DEB",
        "group": "fengyun-1c-debris",
        "lat": -56.804341732952764,
        "lon": -135.9219315453956,
        "alt_km": 553.5491023889472,
        "timestamp": "2025-12-26T06:43:29.798855+00:00",
        "meta_object_name": "FENGYUN 1C DEB",
        "meta_object_id": "1999-025DHR",
        "meta_epoch": "2025-12-25T23:14:09.192480",
        "meta_mean_motion": 14.92793785,
        "meta_eccentricity": 0.01480961,
        "meta_inclination": 98.9768,
        "meta_ra_of_asc_node": 57.7038,
        "meta_arg_of_pericenter": 172.5205,
        "meta_mean_anomaly": 187.827,
        "meta_ephemeris_type": 0,
        "meta_classification_type": "U",
        "meta_norad_cat_id": 33728,
        "meta_element_set_no": 999,
        "meta_rev_at_epoch": 98497,
        "meta_bstar": 0.00052949434,
        "meta_mean_motion_dot": 6.703e-05,
        "meta_mean_motion_ddot": 0,
        "tle_line1": "1 33728U 99025DHR 25359.96816195  .00006703  00000+0  52949-3 0  9994",
        "tle_line2": "2 33728  98.9768  57.7038 0148096 172.5205 187.8270 14.92793785984977"
      },
      "geometry": {
        "type": "Point",
        "coordinates": [
          -135.9219315453956,
          -56.804341732952764
        ]
      }
    },
    {
      "type": "Feature",
      "properties": {
        "norad_id": 33730,
        "name": "FENGYUN 1C DEB",
        "group": "fengyun-1c-debris",
        "lat": 11.272586819627929,
        "lon": -118.82630259721199,
        "alt_km": 709.0404577922236,
        "timestamp": "2025-12-26T06:43:29.798865+00:00",
        "meta_object_name": "FENGYUN 1C DEB",
        "meta_object_id": "1999-025DHT",
        "meta_epoch": "2025-12-17T10:18:00.572256",
        "meta_mean_motion": 14.63540792,
        "meta_eccentricity": 0.00393712,
        "meta_inclination": 99.0546,
        "meta_ra_of_asc_node": 49.6389,
        "meta_arg_of_pericenter": 356.5197,
        "meta_mean_anomaly": 3.5723,
        "meta_ephemeris_type": 0,
        "meta_classification_type": "U",
        "meta_norad_cat_id": 33730,
        "meta_element_set_no": 999,
        "meta_rev_at_epoch": 95748,
        "meta_bstar": 0.0011805307,
        "meta_mean_motion_dot": 6.139e-05,
        "meta_mean_motion_ddot": 0,
        "tle_line1": "1 33730U 99025DHT 25351.42917329  .00006139  00000+0  11805-2 0  9999",
        "tle_line2": "2 33730  99.0546  49.6389 0039371 356.5197   3.5723 14.63540792957483"
      },
      "geometry": {
        "type": "Point",
        "coordinates": [
          -118.82630259721199,
          11.272586819627929
        ]
      }
    },
    {
      "type": "Feature",
      "properties": {
        "norad_id": 33731,
        "name": "FENGYUN 1C DEB",
        "group": "fengyun-1c-debris",
        "lat": -44.04546350067235,
        "lon": 32.08885350700539,
        "alt_km": 874.4380353966553,
        "timestamp": "2025-12-26T06:43:29.798875+00:00",
        "meta_object_name": "FENGYUN 1C DEB",
        "meta_object_id": "1999-025DHU",
        "meta_epoch": "2025-12-23T18:42:18.711072",
        "meta_mean_motion": 13.95379717,
        "meta_eccentricity": 0.012845,
        "meta_inclination": 99.4443,
        "meta_ra_of_asc_node": 20.2634,
        "meta_arg_of_pericenter": 26.0646,
        "meta_mean_anomaly": 334.6908,
        "meta_ephemeris_type": 0,
        "meta_classification_type": "U",
        "meta_norad_cat_id": 33731,
        "meta_element_set_no": 999,
        "meta_rev_at_epoch": 90603,
        "meta_bstar": 0.0015134973,
        "meta_mean_motion_dot": 2.151e-05,
        "meta_mean_motion_ddot": 0,
        "tle_line1": "1 33731U 99025DHU 25357.77938323  .00002151  00000+0  15135-2 0  9991",
        "tle_line2": "2 33731  99.4443  20.2634 0128450  26.0646 334.6908 13.95379717906036"
      },
      "geometry": {
        "type": "Point",
        "coordinates": [
          32.08885350700539,
          -44.04546350067235
        ]
      }
    },
    {
      "type": "Feature",
      "properties": {
        "norad_id": 33733,
        "name": "FENGYUN 1C DEB",
        "group": "fengyun-1c-debris",
        "lat": -55.020207613925294,
        "lon": -106.99537936508884,
        "alt_km": 807.741277107476,
        "timestamp": "2025-12-26T06:43:29.798885+00:00",
        "meta_object_name": "FENGYUN 1C DEB",
        "meta_object_id": "1999-025DHW",
        "meta_epoch": "2025-12-25T04:36:42.103008",
        "meta_mean_motion": 14.31233871,
        "meta_eccentricity": 0.00793833,
        "meta_inclination": 99.0988,
        "meta_ra_of_asc_node": 85.1062,
        "meta_arg_of_pericenter": 135.2874,
        "meta_mean_anomaly": 256.825,
        "meta_ephemeris_type": 0,
        "meta_classification_type": "U",
        "meta_norad_cat_id": 33733,
        "meta_element_set_no": 999,
        "meta_rev_at_epoch": 90626,
        "meta_bstar": 0.0035456386,
        "meta_mean_motion_dot": 9.667e-05,
        "meta_mean_motion_ddot": 0,
        "tle_line1": "1 33733U 99025DHW 25359.19215397  .00009667  00000+0  35456-2 0  9997",
        "tle_line2": "2 33733  99.0988  85.1062 0079383 135.2874 256.8250 14.31233871906260"
      },
      "geometry": {
        "type": "Point",
        "coordinates": [
          -106.99537936508884,
          -55.020207613925294
        ]
      }
    },
    {
      "type": "Feature",
      "properties": {
        "norad_id": 33737,
        "name": "FENGYUN 1C DEB",
        "group": "fengyun-1c-debris",
        "lat": 40.236836821011416,
        "lon": 20.197982822948088,
        "alt_km": 903.9256118162557,
        "timestamp": "2025-12-26T06:43:29.798896+00:00",
        "meta_object_name": "FENGYUN 1C DEB",
        "meta_object_id": "1999-025DJA",
        "meta_epoch": "2025-12-24T11:33:41.550624",
        "meta_mean_motion": 14.03046154,
        "meta_eccentricity": 0.01283503,
        "meta_inclination": 98.3388,
        "meta_ra_of_asc_node": 191.4202,
        "meta_arg_of_pericenter": 249.8033,
        "meta_mean_anomaly": 171.8073,
        "meta_ephemeris_type": 0,
        "meta_classification_type": "U",
        "meta_norad_cat_id": 33737,
        "meta_element_set_no": 999,
        "meta_rev_at_epoch": 88905,
        "meta_bstar": 0.0013199042,
        "meta_mean_motion_dot": 2.166e-05,
        "meta_mean_motion_ddot": 0,
        "tle_line1": "1 33737U 99025DJA 25358.48173091  .00002166  00000+0  13199-2 0  9993",
        "tle_line2": "2 33737  98.3388 191.4202 0128350 249.8033 171.8073 14.03046154889056"
      },
      "geometry": {
        "type": "Point",
        "coordinates": [
          20.197982822948088,
          40.236836821011416
        ]
      }
    }
  ]
}